      2.10          N: GNSS NAV DATA                        RINEX VERSION / TYPE
fic2rin                                 02/14/2022 00:17:37 PGM / RUN BY / DATE
                                                            END OF HEADER
21 22  2 13 22  0  0.0 1.579839736223e-04 6.821210263297e-13 0.000000000000e+00
    9.500000000000e+01 3.778125000000e+01 4.714482091388e-09 2.261987985999e+00
    2.054497599602e-06 2.459879848175e-02-3.725290298462e-07 5.153586938858e+03
    7.920000000000e+04 3.241002559662e-07-2.000836911803e+00 7.450580596924e-08
    9.592485230427e-01 3.780312500000e+02-1.006315341896e+00-8.209270520497e-09
   -2.200091642648e-10 1.000000000000e+00 2.197000000000e+03 0.000000000000e+00
    2.400000000000e+00 0.000000000000e+00-1.024454832077e-08 9.500000000000e+01
    7.200000000000e+04 4.000000000000e+00
22 22  2 13 22  0  0.0 2.131480723619e-04 5.684341886081e-12 0.000000000000e+00
    1.200000000000e+02-1.371875000000e+01 4.269463554580e-09 1.951537653628e+00
   -7.245689630508e-07 1.288402092177e-02 1.017004251480e-05 5.153656906128e+03
    7.920000000000e+04 0.000000000000e+00 2.548199392562e-01-3.054738044739e-07
    9.616506828052e-01 1.818750000000e+02-1.872799144047e+00-7.668176553190e-09
    6.371693978058e-10 1.000000000000e+00 2.197000000000e+03 0.000000000000e+00
    2.400000000000e+00 0.000000000000e+00-9.778887033463e-09 1.200000000000e+02
    7.200000000000e+04 4.000000000000e+00
26 22  2 13 22  0  0.0 1.829806715250e-04 3.183231456205e-12 0.000000000000e+00
    7.800000000000e+01 4.750000000000e+00 5.090569185497e-09-2.327175652184e+00
    0.000000000000e+00 6.873993901536e-03 9.011477231979e-06 5.153699815750e+03
    7.920000000000e+04 4.284083843231e-08 2.214771291188e+00-2.104789018631e-07
    9.384764058693e-01 1.950937500000e+02 3.696269866648e-01-8.123552664290e-09
   -4.700195782020e-10 1.000000000000e+00 2.197000000000e+03 0.000000000000e+00
    2.400000000000e+00 0.000000000000e+00 6.984919309616e-09 7.800000000000e+01
    7.200000000000e+04 4.000000000000e+00
17 22  2 13 22  0  0.0 5.747145041823e-04 5.002220859751e-12 0.000000000000e+00
    6.300000000000e+01 1.088750000000e+02 3.904448350232e-09 2.076372704572e+00
    5.526468157768e-06 1.361961092334e-02 7.504597306252e-06 5.153759336472e+03
    7.920000000000e+04 1.732259988785e-07-2.907780178453e+00-1.285225152969e-07
    9.801885363984e-01 2.371562500000e+02-1.498839391945e+00-7.551385974108e-09
    8.571785620706e-12 1.000000000000e+00 2.197000000000e+03 0.000000000000e+00
    2.400000000000e+00 0.000000000000e+00-1.117587089539e-08 6.300000000000e+01
    7.200000000000e+04 4.000000000000e+00
23 22  2 13 22  0  0.0 1.617707312107e-06-3.524291969370e-12 0.000000000000e+00
    2.260000000000e+02-1.224375000000e+02 4.131243511446e-09-8.093445202193e-01
   -6.392598152161e-06 1.971994992346e-03 6.966292858124e-06 5.153705406189e+03
    7.920000000000e+04 1.490116119385e-08-9.020423857547e-01-1.378357410431e-07
    9.674474269371e-01 2.516562500000e+02 2.959896674526e+00-7.892471610265e-09
   -2.342954736326e-10 1.000000000000e+00 2.197000000000e+03 0.000000000000e+00
    2.400000000000e+00 0.000000000000e+00-8.381903171539e-09 7.380000000000e+02
    7.200000000000e+04 4.000000000000e+00
18 22  2 13 22  0  0.0 2.408018335700e-04-8.071765478235e-12 0.000000000000e+00
    1.910000000000e+02 1.218750000000e+00 4.499830293136e-09 1.008088173319e-01
   -1.303851604462e-07 2.092905109748e-03 1.132488250732e-06 5.153619630814e+03
    7.920000000000e+04 1.117587089539e-08-1.902106288099e+00-3.166496753693e-08
    9.704368137200e-01 3.610625000000e+02 3.108235963578e+00-8.349276352302e-09
   -8.786080261224e-11 1.000000000000e+00 2.197000000000e+03 0.000000000000e+00
    2.400000000000e+00 0.000000000000e+00-8.381903171539e-09 4.470000000000e+02
    7.200000000000e+04 4.000000000000e+00
28 22  2 13 22  0  0.0 4.011276178062e-04-8.071765478235e-12 0.000000000000e+00
    1.060000000000e+02 1.443750000000e+01 4.220175787261e-09 2.563855770061e+00
    7.655471563339e-07 1.681622047909e-02 9.655952453613e-06 5.153698051453e+03
    7.920000000000e+04 2.086162567139e-07 2.360515967754e+00 2.048909664154e-08
    9.694080663199e-01 1.940937500000e+02-1.288287464950e+00-7.443881496115e-09
   -5.950247851707e-10 1.000000000000e+00 2.197000000000e+03 0.000000000000e+00
    3.400000000000e+00 6.300000000000e+01-1.117587089539e-08 1.060000000000e+02
    7.200000000000e+04 4.000000000000e+00
31 22  2 13 21 59 28.0-1.645847223699e-04-1.818989403546e-12 0.000000000000e+00
    1.000000000000e+00 8.562500000000e+00 5.013780272645e-09-1.224396799990e+00
    3.855675458908e-07 1.045187911950e-02 4.881992936134e-06 5.153678941727e+03
    7.916800000000e+04 1.490116119385e-07 1.243503602905e+00-1.247972249985e-07
    9.548377957754e-01 2.745625000000e+02 3.749897078722e-01-8.165697276925e-09
    2.042942239602e-10 1.000000000000e+00 2.197000000000e+03 0.000000000000e+00
    2.400000000000e+00 0.000000000000e+00-1.350417733192e-08 1.000000000000e+00
    7.503000000000e+04 4.000000000000e+00
26 22  2 13 21 59 44.0 1.829797402024e-04 3.183231456205e-12 0.000000000000e+00
    0.000000000000e+00 4.750000000000e+00 5.090569185497e-09-2.329509505376e+00
    0.000000000000e+00 6.873989128508e-03 9.011477231979e-06 5.153699810028e+03
    7.918400000000e+04 4.284083843231e-08 2.214771431629e+00-2.104789018631e-07
    9.384764087951e-01 1.950937500000e+02 3.696271607520e-01-8.123552664290e-09
   -4.700195782020e-10 1.000000000000e+00 2.197000000000e+03 0.000000000000e+00
    2.400000000000e+00 0.000000000000e+00 6.984919309616e-09 0.000000000000e+00
    7.797000000000e+04 4.000000000000e+00
31 22  2 13 23 59 28.0-1.645977608860e-04-1.818989403546e-12 0.000000000000e+00
    2.000000000000e+00 8.812500000000e+00 5.017351849987e-09-1.742189316149e-01
    6.873160600662e-07 1.045184524264e-02 5.189329385757e-06 5.153678846359e+03
    8.636800000000e+04 1.024454832077e-07 1.243444566846e+00 7.823109626770e-08
    9.548382273362e-01 2.743437500000e+02 3.749928838674e-01-8.348204879099e-09
    1.360770967287e-10 1.000000000000e+00 2.197000000000e+03 0.000000000000e+00
    2.400000000000e+00 0.000000000000e+00-1.350417733192e-08 2.000000000000e+00
    7.920000000000e+04 4.000000000000e+00
26 22  2 13 23 59 44.0 1.830030232668e-04 3.183231456205e-12 0.000000000000e+00
    8.000000000000e+00 2.843750000000e+00 5.070925510116e-09-1.279527828944e+00
    5.587935447693e-09 6.874623824842e-03 8.175149559975e-06 5.153697156906e+03
    8.638400000000e+04 1.154839992523e-07 2.214712457012e+00-8.009374141693e-08
    9.384734654039e-01 2.059687500000e+02 3.698159488672e-01-8.143910655139e-09
   -3.868018261344e-10 1.000000000000e+00 2.197000000000e+03 0.000000000000e+00
    2.400000000000e+00 0.000000000000e+00 6.984919309616e-09 8.000000000000e+00
    7.920000000000e+04 4.000000000000e+00
 1 22  2 14  0  0  0.0 4.321518354118e-04-9.549694368616e-12 0.000000000000e+00
    2.300000000000e+01 1.171875000000e+01 4.298750488784e-09 9.521947680141e-01
    7.729977369308e-07 1.137973996811e-02 1.152977347374e-06 5.153669015884e+03
    8.640000000000e+04-1.173466444016e-07-1.910009920997e+00 1.136213541031e-07
    9.866445387110e-01 3.719687500000e+02 8.816411431839e-01-8.399278435089e-09
   -1.182192100189e-10 1.000000000000e+00 2.197000000000e+03 0.000000000000e+00
    2.400000000000e+00 0.000000000000e+00 5.122274160385e-09 2.300000000000e+01
    7.920000000000e+04 4.000000000000e+00
 2 22  2 14  0  0  0.0-6.508058868349e-04-6.821210263297e-13 0.000000000000e+00
    5.000000000000e+01 3.059375000000e+01 4.777699010341e-09 1.098283119146e+00
    1.048669219017e-06 2.068085991777e-02 1.730397343636e-06 5.153686948776e+03
    8.640000000000e+04-1.844018697739e-07-1.999278766534e+00-3.986060619354e-07
    9.649956625485e-01 3.514375000000e+02-1.443202420088e+00-8.593929400226e-09
    1.500062483624e-11 1.000000000000e+00 2.197000000000e+03 0.000000000000e+00
    2.400000000000e+00 0.000000000000e+00-1.769512891769e-08 5.000000000000e+01
    7.920000000000e+04 4.000000000000e+00
 7 22  2 14  0  0  0.0 3.100852482021e-04 2.728484105319e-12 0.000000000000e+00
    4.000000000000e+00 1.356250000000e+01 5.166643782881e-09 2.825514181321e-01
    8.046627044678e-07 1.554142928217e-02 5.263835191727e-06 5.153681909561e+03
    8.640000000000e+04-1.192092895508e-07 1.225350335846e+00 2.793967723846e-07
    9.506189697129e-01 2.748437500000e+02-2.291164767958e+00-8.451780622016e-09
    9.678974596714e-11 1.000000000000e+00 2.197000000000e+03 0.000000000000e+00
    2.400000000000e+00 0.000000000000e+00-1.117587089539e-08 4.000000000000e+00
    7.920000000000e+04 4.000000000000e+00
10 22  2 14  0  0  0.0-3.197379410267e-04-1.045918907039e-11 0.000000000000e+00
    4.500000000000e+01-1.127500000000e+02 4.102670892710e-09-1.079918300966e+00
   -5.990266799927e-06 7.499600877054e-03 7.018446922302e-06 5.153681039810e+03
    8.640000000000e+04 2.291053533554e-07-8.772481069848e-01 1.117587089539e-08
    9.724107305472e-01 2.500937500000e+02-2.514712827609e+00-7.881042562771e-09
   -2.907263956356e-10 1.000000000000e+00 2.197000000000e+03 0.000000000000e+00
    2.400000000000e+00 0.000000000000e+00 2.328306436539e-09 4.500000000000e+01
    7.920000000000e+04 4.000000000000e+00
 9 22  2 14  0  0  0.0-3.542774356902e-04 1.591615728103e-12 0.000000000000e+00
    2.900000000000e+01-2.609375000000e+01 4.378039505776e-09-2.702019572955e+00
   -1.307576894760e-06 2.259505679831e-03 1.059100031853e-05 5.153625734329e+03
    8.640000000000e+04 3.725290298462e-08 1.535514364908e-01 9.313225746155e-09
    9.545372802177e-01 1.729062500000e+02 1.869247641233e+00-7.751751462992e-09
    4.675194740627e-10 1.000000000000e+00 2.197000000000e+03 0.000000000000e+00
    2.400000000000e+00 0.000000000000e+00 1.396983861923e-09 2.900000000000e+01
    7.920000000000e+04 4.000000000000e+00
